FENGYUN 1C DEB          
1 30037U 99025NN  17345.64866341  .00000045  00000-0  28685-4 0  9998
2 30037  98.4547  29.9914 0181547  97.6121  20.5075 14.31157115569567
